start=new Date('2022-09-01T00:00:00.000Z').valueOf();
sats=[{"SEMIMAJOR_AXIS":"6891.580","APOAPSIS":"514.720","PERIOD":"94.894","OBJECT_TYPE":"PAYLOAD","OBJECT_ID":"2022-084AP","ARG_OF_PERICENTER":"115.4381","ECCENTRICITY":"0.00018500","ELEMENT_SET_NO":"999","REV_AT_EPOCH":"130","MEAN_ANOMALY":"265.1140","SITE":"AFWTR","CLASSIFICATION_TYPE":"U","MEAN_MOTION_DOT":"-0.01222483","COUNTRY_CODE":"US","TIME_SYSTEM":"UTC","DECAY_DATE":null,"OBJECT_NAME":"STARLINK-4359","PERIAPSIS":"512.170","LAUNCH_DATE":"2022-07-22","INCLINATION":"97.6556","TLE_LINE2":"2 53226  97.6556 304.0374 0001850 115.4381 265.1140 15.17485641  1301","BSTAR":"-0.06658000000000","RCS_SIZE":"LARGE","EPOCH":"2022-08-31T22:00:00.999936","EPHEMERIS_TYPE":"0","TLE_LINE1":"1 53226U 22084AP  22243.91667824 -.01222483  00000-0 -66580-1 0  9990","REF_FRAME":"TEME","MEAN_MOTION_DDOT":"0.0000000000000","NORAD_CAT_ID":"53226","CENTER_NAME":"EARTH","MEAN_MOTION":"15.17485641","MEAN_ELEMENT_THEORY":"SGP4","GP_ID":"211427024","RA_OF_ASC_NODE":"304.0374","FILE":"3552761"},{"GP_ID":"211427880","MEAN_ELEMENT_THEORY":"SGP4","FILE":"3552761","RA_OF_ASC_NODE":"304.0453","BSTAR":"-0.06480500000000","TLE_LINE2":"2 53227  97.6556 304.0453 0001802 103.8996 324.9616 15.18461655  1302","LAUNCH_DATE":"2022-07-22","INCLINATION":"97.6556","MEAN_MOTION":"15.18461655","CENTER_NAME":"EARTH","NORAD_CAT_ID":"53227","REF_FRAME":"TEME","MEAN_MOTION_DDOT":"0.0000000000000","TLE_LINE1":"1 53227U 22084AQ  22243.91667824 -.01223745  00000-0 -64805-1 0  9991","RCS_SIZE":"LARGE","EPHEMERIS_TYPE":"0","EPOCH":"2022-08-31T22:00:00.999936","CLASSIFICATION_TYPE":"U","SITE":"AFWTR","MEAN_ANOMALY":"324.9616","ELEMENT_SET_NO":"999","ECCENTRICITY":"0.00018020","REV_AT_EPOCH":"130","OBJECT_NAME":"STARLINK-4366","PERIAPSIS":"509.250","DECAY_DATE":null,"TIME_SYSTEM":"UTC","COUNTRY_CODE":"US","MEAN_MOTION_DOT":"-0.01223745","APOAPSIS":"511.733","SEMIMAJOR_AXIS":"6888.626","OBJECT_ID":"2022-084AQ","ARG_OF_PERICENTER":"103.8996","OBJECT_TYPE":"PAYLOAD","PERIOD":"94.833"},{"TIME_SYSTEM":"UTC","DECAY_DATE":null,"OBJECT_NAME":"STARLINK-4365","PERIAPSIS":"511.713","MEAN_MOTION_DOT":"-0.01222647","COUNTRY_CODE":"US","SITE":"AFWTR","CLASSIFICATION_TYPE":"U","REV_AT_EPOCH":"130","ECCENTRICITY":"0.00018090","ELEMENT_SET_NO":"999","MEAN_ANOMALY":"278.2705","ARG_OF_PERICENTER":"111.1554","OBJECT_ID":"2022-084AR","PERIOD":"94.884","OBJECT_TYPE":"PAYLOAD","APOAPSIS":"514.206","SEMIMAJOR_AXIS":"6891.095","FILE":"3552761","RA_OF_ASC_NODE":"304.0372","MEAN_ELEMENT_THEORY":"SGP4","GP_ID":"211427299","NORAD_CAT_ID":"53228","CENTER_NAME":"EARTH","MEAN_MOTION":"15.17645818","RCS_SIZE":"LARGE","EPOCH":"2022-08-31T22:00:00.999936","EPHEMERIS_TYPE":"0","TLE_LINE1":"1 53228U 22084AR  22243.91667824 -.01222647  00000-0 -66284-1 0  9995","MEAN_MOTION_DDOT":"0.0000000000000","REF_FRAME":"TEME","BSTAR":"-0.06628400000000","INCLINATION":"97.6556","LAUNCH_DATE":"2022-07-22","TLE_LINE2":"2 53228  97.6556 304.0372 0001809 111.1554 278.2705 15.17645818  1306"},{"OBJECT_TYPE":"PAYLOAD","PERIOD":"94.825","OBJECT_ID":"2022-084AS","ARG_OF_PERICENTER":"112.3094","SEMIMAJOR_AXIS":"6888.228","APOAPSIS":"511.381","COUNTRY_CODE":"US","MEAN_MOTION_DOT":"-0.01223695","TIME_SYSTEM":"UTC","PERIAPSIS":"508.805","OBJECT_NAME":"STARLINK-4367","DECAY_DATE":null,"ELEMENT_SET_NO":"999","REV_AT_EPOCH":"130","ECCENTRICITY":"0.00018700","MEAN_ANOMALY":"323.2094","SITE":"AFWTR","CLASSIFICATION_TYPE":"U","TLE_LINE1":"1 53229U 22084AS  22243.91667824 -.01223695  00000-0 -64555-1 0  9999","RCS_SIZE":"LARGE","EPOCH":"2022-08-31T22:00:00.999936","EPHEMERIS_TYPE":"0","REF_FRAME":"TEME","MEAN_MOTION_DDOT":"0.0000000000000","NORAD_CAT_ID":"53229","CENTER_NAME":"EARTH","MEAN_MOTION":"15.18593249","INCLINATION":"97.6556","LAUNCH_DATE":"2022-07-22","TLE_LINE2":"2 53229  97.6556 304.0474 0001870 112.3094 323.2094 15.18593249  1303","BSTAR":"-0.06455500000000","RA_OF_ASC_NODE":"304.0474","FILE":"3552761","MEAN_ELEMENT_THEORY":"SGP4","GP_ID":"211427167"},{"FILE":"3552761","RA_OF_ASC_NODE":"304.0474","MEAN_ELEMENT_THEORY":"SGP4","GP_ID":"211427442","CENTER_NAME":"EARTH","NORAD_CAT_ID":"53230","MEAN_MOTION":"15.18439940","TLE_LINE1":"1 53230U 22084AT  22243.91667824 -.01223550  00000-0 -64834-1 0  9991","EPHEMERIS_TYPE":"0","RCS_SIZE":"LARGE","EPOCH":"2022-08-31T22:00:00.999936","MEAN_MOTION_DDOT":"0.0000000000000","REF_FRAME":"TEME","BSTAR":"-0.06483400000000","INCLINATION":"97.6556","LAUNCH_DATE":"2022-07-22","TLE_LINE2":"2 53230  97.6556 304.0474 0001839 110.3956 316.7656 15.18439940  1303","TIME_SYSTEM":"UTC","PERIAPSIS":"509.290","OBJECT_NAME":"STARLINK-4364","DECAY_DATE":null,"COUNTRY_CODE":"US","MEAN_MOTION_DOT":"-0.01223550","CLASSIFICATION_TYPE":"U","SITE":"AFWTR","ECCENTRICITY":"0.00018390","ELEMENT_SET_NO":"999","REV_AT_EPOCH":"130","MEAN_ANOMALY":"316.7656","ARG_OF_PERICENTER":"110.3956","OBJECT_ID":"2022-084AT","OBJECT_TYPE":"PAYLOAD","PERIOD":"94.834","APOAPSIS":"511.824","SEMIMAJOR_AXIS":"6888.692"},{"GP_ID":"211427729","MEAN_ELEMENT_THEORY":"SGP4","RA_OF_ASC_NODE":"304.0440","FILE":"3552761","TLE_LINE2":"2 53231  97.6556 304.0440 0001811  98.8940 343.5402 15.18715341  1309","LAUNCH_DATE":"2022-07-22","INCLINATION":"97.6556","BSTAR":"-0.06435700000000","MEAN_MOTION_DDOT":"0.0000000000000","REF_FRAME":"TEME","TLE_LINE1":"1 53231U 22084AU  22243.91667824 -.01224204  00000-0 -64357-1 0  9999","RCS_SIZE":"LARGE","EPHEMERIS_TYPE":"0","EPOCH":"2022-08-31T22:00:00.999936","MEAN_MOTION":"15.18715341","CENTER_NAME":"EARTH","NORAD_CAT_ID":"53231","MEAN_ANOMALY":"343.5402","ELEMENT_SET_NO":"999","REV_AT_EPOCH":"130","ECCENTRICITY":"0.00018110","SITE":"AFWTR","CLASSIFICATION_TYPE":"U","COUNTRY_CODE":"US","MEAN_MOTION_DOT":"-0.01224204","PERIAPSIS":"508.477","OBJECT_NAME":"STARLINK-4370","DECAY_DATE":null,"TIME_SYSTEM":"UTC","SEMIMAJOR_AXIS":"6887.859","APOAPSIS":"510.971","OBJECT_TYPE":"PAYLOAD","PERIOD":"94.817","OBJECT_ID":"2022-084AU","ARG_OF_PERICENTER":"98.8940"},{"MEAN_ELEMENT_THEORY":"SGP4","GP_ID":"211426882","RA_OF_ASC_NODE":"304.0461","FILE":"3552761","LAUNCH_DATE":"2022-07-22","INCLINATION":"97.6551","TLE_LINE2":"2 53232  97.6551 304.0461 0001794 113.3555 324.5831 15.18682959  1306","BSTAR":"-0.06801600000000","TLE_LINE1":"1 53232U 22084AV  22243.91667824 -.01286799  00000-0 -68016-1 0  9993","RCS_SIZE":"LARGE","EPOCH":"2022-08-31T22:00:00.999936","EPHEMERIS_TYPE":"0","REF_FRAME":"TEME","MEAN_MOTION_DDOT":"0.0000000000000","NORAD_CAT_ID":"53232","CENTER_NAME":"EARTH","MEAN_MOTION":"15.18682959","ELEMENT_SET_NO":"999","ECCENTRICITY":"0.00017940","REV_AT_EPOCH":"130","MEAN_ANOMALY":"324.5831","CLASSIFICATION_TYPE":"U","SITE":"AFWTR","COUNTRY_CODE":"US","MEAN_MOTION_DOT":"-0.01286799","TIME_SYSTEM":"UTC","OBJECT_NAME":"STARLINK-4371","PERIAPSIS":"508.586","DECAY_DATE":null,"SEMIMAJOR_AXIS":"6887.957","APOAPSIS":"511.058","PERIOD":"94.819","OBJECT_TYPE":"PAYLOAD","OBJECT_ID":"2022-084AV","ARG_OF_PERICENTER":"113.3555"},{"FILE":"3552761","RA_OF_ASC_NODE":"304.0423","MEAN_ELEMENT_THEORY":"SGP4","GP_ID":"211427585","NORAD_CAT_ID":"53233","CENTER_NAME":"EARTH","MEAN_MOTION":"15.18732010","RCS_SIZE":"LARGE","EPOCH":"2022-08-31T22:00:00.999936","EPHEMERIS_TYPE":"0","TLE_LINE1":"1 53233U 22084AW  22243.91667824 -.01243829  00000-0 -65448-1 0  9997","MEAN_MOTION_DDOT":"0.0000000000000","REF_FRAME":"TEME","BSTAR":"-0.06544800000000","INCLINATION":"97.6551","LAUNCH_DATE":"2022-07-22","TLE_LINE2":"2 53233  97.6551 304.0423 0001890 112.8262 330.3363 15.18732010  1300","TIME_SYSTEM":"UTC","DECAY_DATE":null,"OBJECT_NAME":"STARLINK-4372","PERIAPSIS":"508.372","MEAN_MOTION_DOT":"-0.01243829","COUNTRY_CODE":"US","CLASSIFICATION_TYPE":"U","SITE":"AFWTR","ELEMENT_SET_NO":"999","REV_AT_EPOCH":"130","ECCENTRICITY":"0.00018900","MEAN_ANOMALY":"330.3363","OBJECT_ID":"2022-084AW","ARG_OF_PERICENTER":"112.8262","PERIOD":"94.816","OBJECT_TYPE":"PAYLOAD","APOAPSIS":"510.976","SEMIMAJOR_AXIS":"6887.809"},{"MEAN_MOTION_DOT":"-0.01224209","COUNTRY_CODE":"US","TIME_SYSTEM":"UTC","DECAY_DATE":null,"PERIAPSIS":"508.041","OBJECT_NAME":"STARLINK-4368","ELEMENT_SET_NO":"999","REV_AT_EPOCH":"130","ECCENTRICITY":"0.00018450","MEAN_ANOMALY":"346.1199","SITE":"AFWTR","CLASSIFICATION_TYPE":"U","PERIOD":"94.808","OBJECT_TYPE":"PAYLOAD","OBJECT_ID":"2022-084AX","ARG_OF_PERICENTER":"103.8630","SEMIMAJOR_AXIS":"6887.447","APOAPSIS":"510.582","RA_OF_ASC_NODE":"304.0415","FILE":"3552761","MEAN_ELEMENT_THEORY":"SGP4","GP_ID":"211427025","EPHEMERIS_TYPE":"0","RCS_SIZE":"LARGE","EPOCH":"2022-08-31T22:00:00.999936","TLE_LINE1":"1 53234U 22084AX  22243.91667824 -.01224209  00000-0 -64103-1 0  9996","REF_FRAME":"TEME","MEAN_MOTION_DDOT":"0.0000000000000","NORAD_CAT_ID":"53234","CENTER_NAME":"EARTH","MEAN_MOTION":"15.18851744","INCLINATION":"97.6556","LAUNCH_DATE":"2022-07-22","TLE_LINE2":"2 53234  97.6556 304.0415 0001845 103.8630 346.1199 15.18851744  1304","BSTAR":"-0.06410300000000"},{"NORAD_CAT_ID":"53242","CENTER_NAME":"EARTH","MEAN_MOTION":"15.49924528","EPHEMERIS_TYPE":"0","RCS_SIZE":"LARGE","EPOCH":"2022-08-31T22:00:00.999936","TLE_LINE1":"1 53242U 22086A   22243.91667824  .00024023  00000-0  42931-3 0  9993","REF_FRAME":"TEME","MEAN_MOTION_DDOT":"0.0000000000000","BSTAR":"0.00042931000000","LAUNCH_DATE":"2022-07-24","INCLINATION":"53.2166","TLE_LINE2":"2 53242  53.2166 214.2541 0001376  80.6699 206.8265 15.49924528  1307","FILE":"3552761","RA_OF_ASC_NODE":"214.2541","MEAN_ELEMENT_THEORY":"SGP4","GP_ID":"211426883","OBJECT_ID":"2022-086A","ARG_OF_PERICENTER":"80.6699","PERIOD":"92.908","OBJECT_TYPE":"PAYLOAD","APOAPSIS":"417.884","SEMIMAJOR_AXIS":"6795.084","TIME_SYSTEM":"UTC","DECAY_DATE":null,"PERIAPSIS":"416.014","OBJECT_NAME":"STARLINK-4056","MEAN_MOTION_DOT":"0.00024023","COUNTRY_CODE":"US","SITE":"AFETR","CLASSIFICATION_TYPE":"U","ELEMENT_SET_NO":"999","ECCENTRICITY":"0.00013760","REV_AT_EPOCH":"130","MEAN_ANOMALY":"206.8265"}];
